[{"OBJECT_NAME":"STARLINK-5773","OBJECT_ID":"2023-088AC","EPOCH":"2026-03-09T19:35:37.020480","MEAN_MOTION":15.02537087,"ECCENTRICITY":0.00011533,"INCLINATION":43.0031,"RA_OF_ASC_NODE":106.3597,"ARG_OF_PERICENTER":272.5844,"MEAN_ANOMALY":87.4866,"EPHEMERIS_TYPE":0,"CLASSIFICATION_TYPE":"U","NORAD_CAT_ID":57074,"ELEMENT_SET_NO":999,"REV_AT_EPOCH":15039,"BSTAR":2.7130697e-5,"MEAN_MOTION_DOT":1.63e-6,"MEAN_MOTION_DDOT":0},{"OBJECT_NAME":"KOMPSAT-7","OBJECT_ID":"2025-279A","EPOCH":"2026-03-09T20:54:17.078400","MEAN_MOTION":15.01421798,"ECCENTRICITY":0.00098953,"INCLINATION":97.6738,"RA_OF_ASC_NODE":18.4558,"ARG_OF_PERICENTER":343.5135,"MEAN_ANOMALY":16.5766,"EPHEMERIS_TYPE":0,"CLASSIFICATION_TYPE":"U","NORAD_CAT_ID":66820,"ELEMENT_SET_NO":999,"REV_AT_EPOCH":1472,"BSTAR":0.00031598708,"MEAN_MOTION_DOT":4.022e-5,"MEAN_MOTION_DDOT":0}]
